<?xml version="1.0" encoding="UTF-8"?>
<ndm xmlns:xsi="http://www.w3.org/2001/XMLSchema-instance" xsi:noNamespaceSchemaLocation="https://sanaregistry.org/r/ndmxml_unqualified/ndmxml-2.0.0-master-2.0.xsd">
<omm id="CCSDS_OMM_VERS" version="2.0">
<header><CREATION_DATE/><ORIGINATOR/></header><body><segment><metadata><OBJECT_NAME>ORBCOMM FM103 [+]</OBJECT_NAME><OBJECT_ID>2014-040F</OBJECT_ID><CENTER_NAME>EARTH</CENTER_NAME><REF_FRAME>TEME</REF_FRAME><TIME_SYSTEM>UTC</TIME_SYSTEM><MEAN_ELEMENT_THEORY>SGP4</MEAN_ELEMENT_THEORY></metadata><data><meanElements><EPOCH>2024-03-07T08:32:07.416096</EPOCH><MEAN_MOTION>14.56354586</MEAN_MOTION><ECCENTRICITY>.0002802</ECCENTRICITY><INCLINATION>47.0062</INCLINATION><RA_OF_ASC_NODE>59.3492</RA_OF_ASC_NODE><ARG_OF_PERICENTER>294.0191</ARG_OF_PERICENTER><MEAN_ANOMALY>66.0400</MEAN_ANOMALY></meanElements><tleParameters><EPHEMERIS_TYPE>0</EPHEMERIS_TYPE><CLASSIFICATION_TYPE>U</CLASSIFICATION_TYPE><NORAD_CAT_ID>40091</NORAD_CAT_ID><ELEMENT_SET_NO>999</ELEMENT_SET_NO><REV_AT_EPOCH>49601</REV_AT_EPOCH><BSTAR>.30988E-3</BSTAR><MEAN_MOTION_DOT>.122E-4</MEAN_MOTION_DOT><MEAN_MOTION_DDOT>0</MEAN_MOTION_DDOT></tleParameters></data></segment></body></omm>
<omm id="CCSDS_OMM_VERS" version="2.0">
<header><CREATION_DATE/><ORIGINATOR/></header><body><segment><metadata><OBJECT_NAME>ORBCOMM FM114 [+]</OBJECT_NAME><OBJECT_ID>2015-081A</OBJECT_ID><CENTER_NAME>EARTH</CENTER_NAME><REF_FRAME>TEME</REF_FRAME><TIME_SYSTEM>UTC</TIME_SYSTEM><MEAN_ELEMENT_THEORY>SGP4</MEAN_ELEMENT_THEORY></metadata><data><meanElements><EPOCH>2024-03-07T11:00:13.025376</EPOCH><MEAN_MOTION>14.56359662</MEAN_MOTION><ECCENTRICITY>.0001738</ECCENTRICITY><INCLINATION>47.0039</INCLINATION><RA_OF_ASC_NODE>328.1732</RA_OF_ASC_NODE><ARG_OF_PERICENTER>350.8985</ARG_OF_PERICENTER><MEAN_ANOMALY>9.1868</MEAN_ANOMALY></meanElements><tleParameters><EPHEMERIS_TYPE>0</EPHEMERIS_TYPE><CLASSIFICATION_TYPE>U</CLASSIFICATION_TYPE><NORAD_CAT_ID>41179</NORAD_CAT_ID><ELEMENT_SET_NO>999</ELEMENT_SET_NO><REV_AT_EPOCH>43639</REV_AT_EPOCH><BSTAR>.38553E-3</BSTAR><MEAN_MOTION_DOT>.1559E-4</MEAN_MOTION_DOT><MEAN_MOTION_DDOT>0</MEAN_MOTION_DDOT></tleParameters></data></segment></body></omm>
<omm id="CCSDS_OMM_VERS" version="2.0">
<header><CREATION_DATE/><ORIGINATOR/></header><body><segment><metadata><OBJECT_NAME>ORBCOMM FM119 [-]</OBJECT_NAME><OBJECT_ID>2015-081B</OBJECT_ID><CENTER_NAME>EARTH</CENTER_NAME><REF_FRAME>TEME</REF_FRAME><TIME_SYSTEM>UTC</TIME_SYSTEM><MEAN_ELEMENT_THEORY>SGP4</MEAN_ELEMENT_THEORY></metadata><data><meanElements><EPOCH>2024-03-07T13:33:07.990848</EPOCH><MEAN_MOTION>14.56346560</MEAN_MOTION><ECCENTRICITY>.0000742</ECCENTRICITY><INCLINATION>46.9991</INCLINATION><RA_OF_ASC_NODE>236.8592</RA_OF_ASC_NODE><ARG_OF_PERICENTER>77.1203</ARG_OF_PERICENTER><MEAN_ANOMALY>282.9764</MEAN_ANOMALY></meanElements><tleParameters><EPHEMERIS_TYPE>0</EPHEMERIS_TYPE><CLASSIFICATION_TYPE>U</CLASSIFICATION_TYPE><NORAD_CAT_ID>41180</NORAD_CAT_ID><ELEMENT_SET_NO>999</ELEMENT_SET_NO><REV_AT_EPOCH>43766</REV_AT_EPOCH><BSTAR>.30516E-3</BSTAR><MEAN_MOTION_DOT>.1199E-4</MEAN_MOTION_DOT><MEAN_MOTION_DDOT>0</MEAN_MOTION_DDOT></tleParameters></data></segment></body></omm>
<omm id="CCSDS_OMM_VERS" version="2.0">
<header><CREATION_DATE/><ORIGINATOR/></header><body><segment><metadata><OBJECT_NAME>ORBCOMM FM105 [-]</OBJECT_NAME><OBJECT_ID>2015-081C</OBJECT_ID><CENTER_NAME>EARTH</CENTER_NAME><REF_FRAME>TEME</REF_FRAME><TIME_SYSTEM>UTC</TIME_SYSTEM><MEAN_ELEMENT_THEORY>SGP4</MEAN_ELEMENT_THEORY></metadata><data><meanElements><EPOCH>2024-03-07T15:00:02.360448</EPOCH><MEAN_MOTION>14.44261463</MEAN_MOTION><ECCENTRICITY>.0001328</ECCENTRICITY><INCLINATION>47.0004</INCLINATION><RA_OF_ASC_NODE>197.6739</RA_OF_ASC_NODE><ARG_OF_PERICENTER>10.1876</ARG_OF_PERICENTER><MEAN_ANOMALY>349.9031</MEAN_ANOMALY></meanElements><tleParameters><EPHEMERIS_TYPE>0</EPHEMERIS_TYPE><CLASSIFICATION_TYPE>U</CLASSIFICATION_TYPE><NORAD_CAT_ID>41181</NORAD_CAT_ID><ELEMENT_SET_NO>999</ELEMENT_SET_NO><REV_AT_EPOCH>43328</REV_AT_EPOCH><BSTAR>.21948E-3</BSTAR><MEAN_MOTION_DOT>.604E-5</MEAN_MOTION_DOT><MEAN_MOTION_DDOT>0</MEAN_MOTION_DDOT></tleParameters></data></segment></body></omm>
<omm id="CCSDS_OMM_VERS" version="2.0">
<header><CREATION_DATE/><ORIGINATOR/></header><body><segment><metadata><OBJECT_NAME>ORBCOMM FM110 [+]</OBJECT_NAME><OBJECT_ID>2015-081D</OBJECT_ID><CENTER_NAME>EARTH</CENTER_NAME><REF_FRAME>TEME</REF_FRAME><TIME_SYSTEM>UTC</TIME_SYSTEM><MEAN_ELEMENT_THEORY>SGP4</MEAN_ELEMENT_THEORY></metadata><data><meanElements><EPOCH>2024-03-07T10:27:06.202944</EPOCH><MEAN_MOTION>14.56356079</MEAN_MOTION><ECCENTRICITY>.0001719</ECCENTRICITY><INCLINATION>47.0026</INCLINATION><RA_OF_ASC_NODE>327.6939</RA_OF_ASC_NODE><ARG_OF_PERICENTER>203.1498</ARG_OF_PERICENTER><MEAN_ANOMALY>156.9310</MEAN_ANOMALY></meanElements><tleParameters><EPHEMERIS_TYPE>0</EPHEMERIS_TYPE><CLASSIFICATION_TYPE>U</CLASSIFICATION_TYPE><NORAD_CAT_ID>41182</NORAD_CAT_ID><ELEMENT_SET_NO>999</ELEMENT_SET_NO><REV_AT_EPOCH>43626</REV_AT_EPOCH><BSTAR>.39453E-3</BSTAR><MEAN_MOTION_DOT>.1599E-4</MEAN_MOTION_DOT><MEAN_MOTION_DDOT>0</MEAN_MOTION_DDOT></tleParameters></data></segment></body></omm>
<omm id="CCSDS_OMM_VERS" version="2.0">
<header><CREATION_DATE/><ORIGINATOR/></header><body><segment><metadata><OBJECT_NAME>ORBCOMM FM118 [+]</OBJECT_NAME><OBJECT_ID>2015-081E</OBJECT_ID><CENTER_NAME>EARTH</CENTER_NAME><REF_FRAME>TEME</REF_FRAME><TIME_SYSTEM>UTC</TIME_SYSTEM><MEAN_ELEMENT_THEORY>SGP4</MEAN_ELEMENT_THEORY></metadata><data><meanElements><EPOCH>2024-03-07T09:54:19.024416</EPOCH><MEAN_MOTION>14.56358675</MEAN_MOTION><ECCENTRICITY>.0001849</ECCENTRICITY><INCLINATION>47.0046</INCLINATION><RA_OF_ASC_NODE>328.0928</RA_OF_ASC_NODE><ARG_OF_PERICENTER>197.0925</ARG_OF_PERICENTER><MEAN_ANOMALY>162.9897</MEAN_ANOMALY></meanElements><tleParameters><EPHEMERIS_TYPE>0</EPHEMERIS_TYPE><CLASSIFICATION_TYPE>U</CLASSIFICATION_TYPE><NORAD_CAT_ID>41183</NORAD_CAT_ID><ELEMENT_SET_NO>999</ELEMENT_SET_NO><REV_AT_EPOCH>43636</REV_AT_EPOCH><BSTAR>.35506E-3</BSTAR><MEAN_MOTION_DOT>.1422E-4</MEAN_MOTION_DOT><MEAN_MOTION_DDOT>0</MEAN_MOTION_DDOT></tleParameters></data></segment></body></omm>
<omm id="CCSDS_OMM_VERS" version="2.0">
<header><CREATION_DATE/><ORIGINATOR/></header><body><segment><metadata><OBJECT_NAME>ORBCOMM FM112 [+]</OBJECT_NAME><OBJECT_ID>2015-081F</OBJECT_ID><CENTER_NAME>EARTH</CENTER_NAME><REF_FRAME>TEME</REF_FRAME><TIME_SYSTEM>UTC</TIME_SYSTEM><MEAN_ELEMENT_THEORY>SGP4</MEAN_ELEMENT_THEORY></metadata><data><meanElements><EPOCH>2024-03-07T04:47:26.907072</EPOCH><MEAN_MOTION>14.56339572</MEAN_MOTION><ECCENTRICITY>.000048</ECCENTRICITY><INCLINATION>46.9975</INCLINATION><RA_OF_ASC_NODE>237.8124</RA_OF_ASC_NODE><ARG_OF_PERICENTER>35.2328</ARG_OF_PERICENTER><MEAN_ANOMALY>324.8588</MEAN_ANOMALY></meanElements><tleParameters><EPHEMERIS_TYPE>0</EPHEMERIS_TYPE><CLASSIFICATION_TYPE>U</CLASSIFICATION_TYPE><NORAD_CAT_ID>41184</NORAD_CAT_ID><ELEMENT_SET_NO>999</ELEMENT_SET_NO><REV_AT_EPOCH>43755</REV_AT_EPOCH><BSTAR>.35743E-3</BSTAR><MEAN_MOTION_DOT>.1432E-4</MEAN_MOTION_DOT><MEAN_MOTION_DDOT>0</MEAN_MOTION_DDOT></tleParameters></data></segment></body></omm>
<omm id="CCSDS_OMM_VERS" version="2.0">
<header><CREATION_DATE/><ORIGINATOR/></header><body><segment><metadata><OBJECT_NAME>ORBCOMM FM113 [+]</OBJECT_NAME><OBJECT_ID>2015-081G</OBJECT_ID><CENTER_NAME>EARTH</CENTER_NAME><REF_FRAME>TEME</REF_FRAME><TIME_SYSTEM>UTC</TIME_SYSTEM><MEAN_ELEMENT_THEORY>SGP4</MEAN_ELEMENT_THEORY></metadata><data><meanElements><EPOCH>2024-03-07T12:28:21.439776</EPOCH><MEAN_MOTION>14.56340263</MEAN_MOTION><ECCENTRICITY>.000027</ECCENTRICITY><INCLINATION>46.9993</INCLINATION><RA_OF_ASC_NODE>236.5597</RA_OF_ASC_NODE><ARG_OF_PERICENTER>112.5892</ARG_OF_PERICENTER><MEAN_ANOMALY>247.5021</MEAN_ANOMALY></meanElements><tleParameters><EPHEMERIS_TYPE>0</EPHEMERIS_TYPE><CLASSIFICATION_TYPE>U</CLASSIFICATION_TYPE><NORAD_CAT_ID>41185</NORAD_CAT_ID><ELEMENT_SET_NO>999</ELEMENT_SET_NO><REV_AT_EPOCH>43758</REV_AT_EPOCH><BSTAR>.39413E-3</BSTAR><MEAN_MOTION_DOT>.1597E-4</MEAN_MOTION_DOT><MEAN_MOTION_DDOT>0</MEAN_MOTION_DDOT></tleParameters></data></segment></body></omm>

</ndm>
