41180,ORBCOMM FM119,2015,98.88,-1.0,-,47.0,Inactive,0,LEO,USA,ORBCOMM,Unknown,Unknown,Unknown,1 41180U 15081B   24067.56467582  .00001199  00000+0  30516-3 0  9998,2 41180  46.9991 236.8592 0000742  77.1203 282.9764 14.56346560437666,14.5634656,7.42e-05,LEO
41181,ORBCOMM FM105,2015,99.71,-1.0,-,47.0,Inactive,0,LEO,USA,ORBCOMM,Unknown,Unknown,Unknown,1 41181U 15081C   24067.62502732  .00000604  00000+0  21948-3 0  9992,2 41181  47.0004 197.6739 0001328  10.1876 349.9031 14.44261463433285,14.44261463,0.0001328,LEO
40091,ORBCOMM FM103,2014,98.88,172.0,+,47.01,Active,1,LEO,USA,ORBCOMM,Commercial,Communications,Falcon,1 40091U 14040F   24067.35564139  .00001220  00000+0  30988-3 0  9993,2 40091  47.0062  59.3492 0002802 294.0191  66.0400 14.56354586496018,14.56354586,0.0002802,LEO
41179,ORBCOMM FM114,2015,98.88,172.0,+,47.0,Active,1,LEO,USA,ORBCOMM,Commercial,Communications,Falcon,1 41179U 15081A   24067.45848409  .00001559  00000+0  38553-3 0  9994,2 41179  47.0039 328.1732 0001738 350.8985   9.1868 14.56359662436394,14.56359662,0.0001738,LEO
41182,ORBCOMM FM110,2015,98.88,172.0,+,47.0,Active,1,LEO,USA,ORBCOMM,Commercial,Communications,Falcon,1 41182U 15081D   24067.43548846  .00001599  00000+0  39453-3 0  9992,2 41182  47.0026 327.6939 0001719 203.1498 156.9310 14.56356079436263,14.56356079,0.0001719,LEO
41183,ORBCOMM FM118,2015,98.88,172.0,+,47.0,Active,1,LEO,USA,ORBCOMM,Commercial,Communications,Falcon,1 41183U 15081E   24067.41272019  .00001422  00000+0  35506-3 0  9997,2 41183  47.0046 328.0928 0001849 197.0925 162.9897 14.56358675436361,14.56358675,0.0001849,LEO
41184,ORBCOMM FM112,2015,98.88,172.0,+,47.0,Active,1,LEO,USA,ORBCOMM,Commercial,Communications,Falcon,1 41184U 15081F   24067.19961698  .00001432  00000+0  35743-3 0  9995,2 41184  46.9975 237.8124 0000480  35.2328 324.8588 14.56339572437559,14.56339572,4.8e-05,LEO
41185,ORBCOMM FM113,2015,98.88,172.0,+,47.0,Active,1,LEO,USA,ORBCOMM,Commercial,Communications,Falcon,1 41185U 15081G   24067.51969259  .00001597  00000+0  39413-3 0  9993,2 41185  46.9993 236.5597 0000270 112.5892 247.5021 14.56340263437587,14.56340263,2.7e-05,LEO
